[{"OBJECT_NAME":"CE-SAT-IE","OBJECT_ID":"2024-032A","EPOCH":"2026-03-09T20:59:24.263232","MEAN_MOTION":14.68188526,"ECCENTRICITY":0.00036701,"INCLINATION":98.0095,"RA_OF_ASC_NODE":125.7334,"ARG_OF_PERICENTER":55.1646,"MEAN_ANOMALY":304.9904,"EPHEMERIS_TYPE":0,"CLASSIFICATION_TYPE":"U","NORAD_CAT_ID":58987,"ELEMENT_SET_NO":999,"REV_AT_EPOCH":11026,"BSTAR":0.00011964159,"MEAN_MOTION_DOT":6.41e-6,"MEAN_MOTION_DDOT":0},{"OBJECT_NAME":"CZ-6A DEB","OBJECT_ID":"2024-140TP","EPOCH":"2026-03-09T13:47:21.553728","MEAN_MOTION":14.57453116,"ECCENTRICITY":0.0058545,"INCLINATION":88.8887,"RA_OF_ASC_NODE":275.0147,"ARG_OF_PERICENTER":258.4139,"MEAN_ANOMALY":101.0496,"EPHEMERIS_TYPE":0,"CLASSIFICATION_TYPE":"U","NORAD_CAT_ID":61302,"ELEMENT_SET_NO":999,"REV_AT_EPOCH":8099,"BSTAR":0.0017836,"MEAN_MOTION_DOT":8.306e-5,"MEAN_MOTION_DDOT":0}]
